OBJECT_NAME,OBJECT_ID,EPOCH,MEAN_MOTION,ECCENTRICITY,INCLINATION,RA_OF_ASC_NODE,ARG_OF_PERICENTER,MEAN_ANOMALY,EPHEMERIS_TYPE,CLASSIFICATION_TYPE,NORAD_CAT_ID,ELEMENT_SET_NO,REV_AT_EPOCH,BSTAR,MEAN_MOTION_DOT,MEAN_MOTION_DDOT
STARLINK-32726,2024-251Q,2026-07-19T21:18:30.302208,15.34409480,.00012616,53.1585,80.1891,75.8593,284.2549,0,U,62446,999,8789,.42292449E-3,.13944E-3,0
STARLINK-32719,2024-251S,2026-07-19T22:16:02.739072,15.34399954,.00015931,53.1598,80.2902,95.2514,264.8671,0,U,62448,999,8803,.33262046E-3,.10878E-3,0
STARLINK-32723,2024-251T,2026-07-19T21:00:19.484064,15.34396516,.00012297,53.1589,80.1106,91.3816,268.7328,0,U,62449,999,8804,.18113553E-3,.5748E-4,0
STARLINK-32722,2024-251U,2026-07-19T23:10:28.685856,15.34399077,.0001326,53.1587,79.9580,83.1967,276.9186,0,U,62450,999,8784,.19612446E-3,.6255E-4,0
STARLINK-32720,2024-251V,2026-07-19T22:55:20.047296,15.34435971,.00012766,53.1590,79.8982,69.5677,290.5463,0,U,62451,999,8784,.70581968E-3,.23573E-3,0
STARLINK-32656,2024-251W,2026-07-19T22:58:21.584064,15.34399636,.00011285,53.1570,79.9045,87.8299,272.2833,0,U,62452,999,8805,.38805609E-3,.12757E-3,0
STARLINK-32690,2024-251X,2026-07-19T21:39:42.776352,15.34390647,.00012519,53.1582,80.2803,96.2691,263.8454,0,U,62453,999,8782,.34696488E-3,.11361E-3,0
ASTRANIS UTILITYSAT,2024-252A,2026-07-18T23:44:41.809056,1.00288228,.75367781,9.1381,326.2607,256.9544,17.7191,0,U,62454,999,574,0,-.146E-5,0
NUVIEW ALPHA,2024-252B,2026-07-20T05:53:28.529376,1.00271956,.00012654,0.0397,19.2712,73.0144,211.0081,0,U,62455,999,415,0,-.217E-5,0
AGILA,2024-252C,2026-07-20T03:03:38.622240,1.00271690,.00014472,0.0375,150.0252,330.7329,15.2222,0,U,62456,999,549,0,-.184E-5,0
NUVIEW BRAVO,2024-252D,2026-07-20T05:53:28.529376,1.00272387,.00017677,0.0675,168.0997,337.1854,157.9963,0,U,62457,999,412,0,-.217E-5,0
SDX01,2024-253A,2026-07-20T07:04:01.423488,15.75152787,.00060628,54.9925,190.9883,29.7907,330.3481,0,U,62459,999,8774,.32012018E-3,.48484E-3,0
SDX02,2024-253B,2026-07-20T07:05:25.955520,15.75096783,.00060278,54.9932,190.9984,29.0464,331.0914,0,U,62460,999,8773,.3196605E-3,.48293E-3,0
STARLINK-11518 [DTC],2024-254A,2026-07-19T22:07:56.115264,15.70949594,.00018508,43.0000,146.3182,240.4646,119.6037,0,U,62462,999,9020,.12431796E-2,.162985E-2,0
STARLINK-11455 [DTC],2024-254B,2026-07-19T23:47:08.724480,15.70851168,.00019701,43.0002,145.9769,282.2152,77.8495,0,U,62463,999,9020,.95954461E-3,.124597E-2,0
STARLINK-11178 [DTC],2024-254D,2026-07-20T05:30:26.879328,15.70857663,.00022292,43.0017,144.3159,280.4281,79.6335,0,U,62465,999,9008,.82574458E-3,.106963E-2,0
STARLINK-11506 [DTC],2024-254E,2026-07-20T02:57:43.576128,15.70947453,.00020345,43.0025,144.3549,244.3818,115.6839,0,U,62466,999,9007,.11015924E-2,.144028E-2,0
STARLINK-11486 [DTC],2024-254F,2026-07-20T05:38:05.684064,15.70937880,.00022064,43.0011,144.3574,273.6173,86.4443,0,U,62467,999,9024,.96934154E-3,.126363E-2,0
STARLINK-11511 [DTC],2024-254G,2026-07-20T05:07:29.866368,15.70894662,.0004718,43.0026,144.1861,256.5410,103.4932,0,U,62468,999,9024,.91622368E-3,.119141E-2,0
STARLINK-11505 [DTC],2024-254H,2026-07-20T04:52:12.890208,15.70947584,.00031868,43.0040,144.1004,263.9684,96.0821,0,U,62469,999,9023,.1024849E-2,.133814E-2,0
STARLINK-11497 [DTC],2024-254J,2026-07-20T05:15:09.478080,15.70867658,.00019605,43.0021,144.2268,276.1829,83.8816,0,U,62470,999,9024,.11879911E-2,.155045E-2,0
STARLINK-11477 [DTC],2024-254K,2026-07-20T04:44:34.475136,15.70854887,.00019243,43.0014,144.0554,271.7906,88.2742,0,U,62471,999,9023,.8116269E-3,.105088E-2,0
STARLINK-11500 [DTC],2024-254L,2026-07-20T03:05:22.299648,15.70887877,.00011966,43.0002,144.3952,246.1019,113.9723,0,U,62472,999,8970,.83237331E-3,.10797E-2,0
STARLINK-11464 [DTC],2024-254M,2026-07-20T05:22:48.316512,15.70866489,.00016822,43.0005,144.2687,278.2185,81.8492,0,U,62473,999,9029,.12804176E-2,.167383E-2,0
STARLINK-11502 [DTC],2024-254N,2026-07-19T21:22:03.590976,15.70871288,.00023408,43.0013,146.0550,255.9061,104.1547,0,U,62474,999,9019,.75555275E-3,.97781E-3,0
STARLINK-32657,2024-254P,2026-07-19T18:17:23.606592,15.27582929,.0000312,42.9981,353.7954,336.2492,23.8345,0,U,62475,999,8766,.35009543E-3,.9385E-4,0
STARLINK-32734,2024-254Q,2026-07-19T18:51:23.068224,15.27590739,.00016249,43.0038,350.5086,276.9276,83.1390,0,U,62476,999,8785,.41648634E-3,.1122E-3,0
STARLINK-32733,2024-254R,2026-07-19T19:28:10.475904,15.27594262,.00016942,43.0038,349.8358,268.0512,92.0146,0,U,62477,999,8786,.31109288E-3,.8312E-4,0
STARLINK-32707,2024-254S,2026-07-20T02:27:21.778560,15.27586252,.00015527,43.0003,348.5820,278.0674,82.0001,0,U,62478,999,8790,.2667117E-3,.7086E-4,0
STARLINK-32705,2024-254T,2026-07-19T18:58:07.112640,15.27579341,.00018737,43.0038,342.7574,265.7757,94.2880,0,U,62479,999,8778,.28577808E-3,.761E-4,0
