STARLINK-32726          
1 62446U 24251Q   26200.88785072  .00013944  00000+0  42292-3 0  9993
2 62446  53.1585  80.1891 0001261  75.8593 284.2549 15.34409480 87899
STARLINK-32719          
1 62448U 24251S   26200.92780948  .00010878  00000+0  33262-3 0  9997
2 62448  53.1598  80.2902 0001593  95.2514 264.8671 15.34399954 88037
STARLINK-32723          
1 62449U 24251T   26200.87522551  .00005748  00000+0  18114-3 0  9995
2 62449  53.1589  80.1106 0001229  91.3816 268.7328 15.34396516 88045
STARLINK-32722          
1 62450U 24251U   26200.96560979  .00006255  00000+0  19612-3 0  9991
2 62450  53.1587  79.9580 0001326  83.1967 276.9186 15.34399077 87846
STARLINK-32720          
1 62451U 24251V   26200.95509314  .00023573  00000+0  70582-3 0  9992
2 62451  53.1590  79.8982 0001276  69.5677 290.5463 15.34435971 87840
STARLINK-32656          
1 62452U 24251W   26200.95719426  .00012757  00000+0  38806-3 0  9995
2 62452  53.1570  79.9045 0001128  87.8299 272.2833 15.34399636 88058
STARLINK-32690          
1 62453U 24251X   26200.90257843  .00011361  00000+0  34696-3 0  9994
2 62453  53.1582  80.2803 0001251  96.2691 263.8454 15.34390647 87828
ASTRANIS UTILITYSAT     
1 62454U 24252A   26199.98937279 -.00000146  00000+0  00000+0 0  9997
2 62454   9.1381 326.2607 7536778 256.9544  17.7191  1.00288228  5742
NUVIEW ALPHA            
1 62455U 24252B   26201.24546909 -.00000217  00000+0  00000+0 0  9996
2 62455   0.0397  19.2712 0001265  73.0144 211.0081  1.00271956  4152
AGILA                   
1 62456U 24252C   26201.12753035 -.00000184  00000+0  00000+0 0  9997
2 62456   0.0375 150.0252 0001447 330.7329  15.2222  1.00271690  5496
NUVIEW BRAVO            
1 62457U 24252D   26201.24546909 -.00000217  00000+0  00000+0 0  9998
2 62457   0.0675 168.0997 0001767 337.1854 157.9963  1.00272387  4123
SDX01                   
1 62459U 24253A   26201.29446092  .00048484  00000+0  32012-3 0  9997
2 62459  54.9925 190.9883 0006062  29.7907 330.3481 15.75152787 87744
SDX02                   
1 62460U 24253B   26201.29543930  .00048293  00000+0  31966-3 0  9993
2 62460  54.9932 190.9984 0006027  29.0464 331.0914 15.75096783 87739
STARLINK-11518 [DTC]    
1 62462U 24254A   26200.92217726  .00162985  00000+0  12432-2 0  9997
2 62462  43.0000 146.3182 0001850 240.4646 119.6037 15.70949594 90205
STARLINK-11455 [DTC]    
1 62463U 24254B   26200.99107320  .00124597  00000+0  95954-3 0  9991
2 62463  43.0002 145.9769 0001970 282.2152  77.8495 15.70851168 90205
STARLINK-11178 [DTC]    
1 62465U 24254D   26201.22947777  .00106963  00000+0  82574-3 0  9999
2 62465  43.0017 144.3159 0002229 280.4281  79.6335 15.70857663 90085
STARLINK-11506 [DTC]    
1 62466U 24254E   26201.12342102  .00144028  00000+0  11016-2 0  9996
2 62466  43.0025 144.3549 0002034 244.3818 115.6839 15.70947453 90073
STARLINK-11486 [DTC]    
1 62467U 24254F   26201.23478801  .00126363  00000+0  96934-3 0  9990
2 62467  43.0011 144.3574 0002206 273.6173  86.4443 15.70937880 90245
STARLINK-11511 [DTC]    
1 62468U 24254G   26201.21354012  .00119141  00000+0  91622-3 0  9991
2 62468  43.0026 144.1861 0004718 256.5410 103.4932 15.70894662 90246
STARLINK-11505 [DTC]    
1 62469U 24254H   26201.20292697  .00133814  00000+0  10248-2 0  9998
2 62469  43.0040 144.1004 0003186 263.9684  96.0821 15.70947584 90230
STARLINK-11497 [DTC]    
1 62470U 24254J   26201.21885970  .00155045  00000+0  11880-2 0  9996
2 62470  43.0021 144.2268 0001960 276.1829  83.8816 15.70867658 90241
STARLINK-11477 [DTC]    
1 62471U 24254K   26201.19762124  .00105088  00000+0  81163-3 0  9993
2 62471  43.0014 144.0554 0001924 271.7906  88.2742 15.70854887 90233
STARLINK-11500 [DTC]    
1 62472U 24254L   26201.12873032  .00107970  00000+0  83237-3 0  9994
2 62472  43.0002 144.3952 0001196 246.1019 113.9723 15.70887877 89708
STARLINK-11464 [DTC]    
1 62473U 24254M   26201.22417033  .00167383  00000+0  12804-2 0  9996
2 62473  43.0005 144.2687 0001682 278.2185  81.8492 15.70866489 90294
STARLINK-11502 [DTC]    
1 62474U 24254N   26200.89031934  .00097781  00000+0  75555-3 0  9998
2 62474  43.0013 146.0550 0002340 255.9061 104.1547 15.70871288 90192
STARLINK-32657          
1 62475U 24254P   26200.76207878  .00009385  00000+0  35010-3 0  9992
2 62475  42.9981 353.7954 0000312 336.2492  23.8345 15.27582929 87662
STARLINK-32734          
1 62476U 24254Q   26200.78568366  .00011220  00000+0  41649-3 0  9993
2 62476  43.0038 350.5086 0001624 276.9276  83.1390 15.27590739 87854
STARLINK-32733          
1 62477U 24254R   26200.81123236  .00008312  00000+0  31109-3 0  9999
2 62477  43.0038 349.8358 0001694 268.0512  92.0146 15.27594262 87864
STARLINK-32707          
1 62478U 24254S   26201.10233540  .00007086  00000+0  26671-3 0  9998
2 62478  43.0003 348.5820 0001552 278.0674  82.0001 15.27586252 87904
STARLINK-32705          
1 62479U 24254T   26200.79036010  .00007610  00000+0  28578-3 0  9997
2 62479  43.0038 342.7574 0001873 265.7757  94.2880 15.27579341 87783
